OBJECT_NAME,OBJECT_ID,EPOCH,MEAN_MOTION,ECCENTRICITY,INCLINATION,RA_OF_ASC_NODE,ARG_OF_PERICENTER,MEAN_ANOMALY,EPHEMERIS_TYPE,CLASSIFICATION_TYPE,NORAD_CAT_ID,ELEMENT_SET_NO,REV_AT_EPOCH,BSTAR,MEAN_MOTION_DOT,MEAN_MOTION_DDOT
YAOGAN-32 B,2018-077B,2026-06-30T14:17:03.803424,14.63190735,.00059459,98.1471,209.9338,163.0955,197.0446,0,U,43643,999,41179,.17055597E-3,.831E-5,0
BEIDOU-3 M16,2018-078A,2026-06-30T10:38:26.690208,1.86232447,.00068914,54.0771,299.5213,40.4774,319.5856,0,U,43647,999,5240,0,-.69E-6,0
BEIDOU-3 M15,2018-078B,2026-06-30T00:51:23.712768,1.86232575,.00038812,54.0730,299.5360,58.0730,301.9745,0,U,43648,999,5241,0,-.71E-6,0
AEHF-4 (USA 288),2018-079A,2026-06-30T12:02:43.641600,1.00268726,.00599071,1.4361,5.0704,355.7155,30.9009,0,U,43651,999,2843,0,-.264E-5,0
HAIYANG-2B,2018-081A,2026-06-30T13:59:02.606784,13.79307835,.00002108,99.3279,190.1365,169.2746,190.8411,0,U,43655,999,38677,-.12057766E-3,-.168E-5,0
COSMOS 2528,2018-082A,2026-06-29T23:17:45.485376,13.96710333,.00080771,67.1494,46.6877,275.0960,84.9203,0,U,43657,999,39173,.42359207E-4,-.16E-6,0
CFOSAT,2018-083A,2026-06-30T13:19:29.036352,15.16455499,.0002258,97.3603,185.6921,82.0323,278.1166,0,U,43662,999,42446,.18840368E-3,.36E-4,0
GOSAT 2 (IBUKI 1),2018-084B,2026-06-30T07:19:55.408224,14.84231709,.00017965,97.8811,292.6474,95.3257,264.8162,0,U,43672,999,41550,-.11070412E-3,-.979E-5,0
KHALIFASAT,2018-084F,2026-06-30T14:13:06.103200,15.01348601,.00074527,98.0789,4.5278,63.8930,296.3059,0,U,43676,999,41778,.17968126E-3,.225E-4,0
TEN-KOH,2018-084G,2026-06-30T12:07:59.888064,15.02983709,.00108038,98.0739,14.4300,75.6366,284.6056,0,U,43677,999,41816,.12415701E-3,.1605E-4,0
DIWATA-2B,2018-084H,2026-06-30T13:46:22.698048,15.00509099,.00131135,98.1200,18.3663,128.6702,231.5696,0,U,43678,999,41822,.16142167E-3,.1972E-4,0
STARS-AO,2018-084J,2026-06-29T12:56:32.231616,15.17184998,.00035371,98.0486,35.2722,111.8437,248.3171,0,U,43679,999,41934,.30179989E-3,.5921E-4,0
AUTCUBE 2,2018-084K,2026-06-29T19:40:41.081088,15.10172460,.00090315,98.0694,27.6642,10.7512,349.3908,0,U,43681,999,41883,.18663384E-3,.2977E-4,0
BEIDOU-3 G1,2018-085A,2026-06-30T13:31:54.468768,1.00271120,.00085811,2.9014,97.0155,352.7664,191.7445,0,U,43683,999,2819,0,-.101E-5,0
COSMOS 2529 [GLONASS-M],2018-086A,2026-06-29T09:09:54.697248,2.13102097,.00121229,64.2959,192.1827,256.5039,103.4062,0,U,43687,999,5954,0,.86E-6,0
METOP-C,2018-087A,2026-06-30T13:58:40.440000,14.21515657,.00021156,98.6639,240.9408,112.5861,247.5540,0,U,43689,999,39673,.7106164E-4,.112E-5,0
GSAT-29,2018-089A,2026-06-30T12:37:35.376960,1.00271899,.00037206,0.0768,260.6398,175.4342,86.9351,0,U,43698,999,2792,0,.96E-6,0
ES'HAIL 2,2018-090A,2026-06-30T07:21:13.895712,1.00272145,.00022292,0.0187,24.8803,108.3216,281.2639,0,U,43700,999,2780,0,.155E-5,0
BEIDOU-3 M17,2018-093A,2026-06-30T05:36:08.944704,1.86228551,.00101611,54.1700,181.8536,292.9724,91.1498,0,U,43706,999,5178,0,.7E-6,0
BEIDOU-3 M18,2018-093B,2026-06-26T20:08:19.943808,1.86226764,.00080357,54.1706,181.9606,320.7153,39.2547,0,U,43707,999,5171,0,.92E-6,0
SHIYAN-6 01 (SY-6 01),2018-094B,2026-06-29T23:36:15.573312,15.29785781,.00146974,97.3584,194.9957,102.5673,257.7212,0,U,43711,999,42344,.19103058E-3,.5452E-4,0
MOHAMMED VI-B,2018-095A,2026-06-30T12:31:39.313920,14.77065865,.00015909,97.9560,253.6636,97.2834,262.8557,0,U,43717,999,41015,.12967194E-3,.864E-5,0
HYSIS,2018-096A,2026-06-30T13:01:28.061760,14.78643494,.00018532,97.9840,248.1857,89.7308,270.4116,0,U,43719,999,40939,.18031568E-3,.1269E-4,0
COSMOS 2530 (RODNIK-S 16),2018-097A,2026-06-30T13:52:44.791680,12.42881657,.00196178,82.5125,213.9700,11.0880,349.0628,0,U,43751,999,34395,.27477394E-3,.48E-6,0
COSMOS 2531 (RODNIK-S 17),2018-097B,2026-06-30T12:28:26.141664,12.42912701,.00172442,82.5171,215.0693,30.5256,329.6824,0,U,43752,999,34396,-.26554551E-3,-.27E-6,0
COSMOS 2532 (RODNIK-S 18),2018-097C,2026-06-30T13:09:11.507040,12.42909904,.00186477,82.5115,213.8317,32.2963,327.9255,0,U,43753,999,34393,-.59678051E-3,-.73E-6,0
MINXSS-2,2018-099A,2026-06-30T13:02:09.201984,15.47801901,.00077935,97.4535,258.2263,205.9545,154.1315,0,U,43758,999,41619,.67327568E-3,.34995E-3,0
SIRION PATHFINDER-2,2018-099B,2026-06-30T01:33:03.796128,15.14659229,.00071909,97.4246,229.8162,249.9523,110.0936,0,U,43759,999,41457,.25812186E-3,.4711E-4,0
STPSAT-5,2018-099E,2026-06-30T02:51:36.970560,15.13802408,.00014972,97.4078,230.5517,305.6417,54.4676,0,U,43762,999,41482,.21185895E-3,.3761E-4,0
POLAR SCOUT KODIAK,2018-099G,2026-06-30T11:12:14.622624,15.83875527,.00075781,97.4155,266.2482,203.8914,156.2005,0,U,43764,999,41703,.10027709E-2,.227393E-2,0
HAWK-A,2018-099H,2026-06-30T01:55:12.410400,15.24791675,.00333782,97.3907,233.1483,238.2442,121.5542,0,U,43765,999,41506,.28289225E-3,.7053E-4,0
SPAWAR-CAL-O,2018-099J,2026-06-29T21:44:42.420192,15.35598498,.00070736,97.4324,244.9932,233.5361,126.5231,0,U,43766,999,41547,.57717709E-3,.19936E-3,0
CORVUS BC4,2018-099K,2026-06-30T08:28:46.437600,15.12595052,.00069517,97.4056,223.9482,324.3515,35.7251,0,U,43767,999,41439,.21773691E-3,.3739E-4,0
AISTECHSAT 2,2018-099L,2026-06-30T02:18:31.290336,15.15573376,.00032479,97.4285,228.8478,241.3967,118.6939,0,U,43768,999,41423,.25915289E-3,.4853E-4,0
FOX-1CLIFF (AO-95),2018-099N,2026-06-30T02:52:08.745888,15.26976456,.00070264,97.4382,241.3196,305.2018,54.8563,0,U,43770,999,41519,.38875261E-3,.10231E-3,0
RANGE-A,2018-099R,2026-06-29T22:31:30.128160,15.13492933,.00087356,97.3957,223.1446,307.9528,52.0914,0,U,43773,999,41442,.28961688E-3,.5124E-4,0
SPAWAR-CAL-R,2018-099U,2026-06-30T13:47:25.064160,15.05707350,.00186838,97.4380,221.5054,318.6080,41.3731,0,U,43776,999,41401,.14813669E-3,.2089E-4,0
SPAWAR-CAL-OR,2018-099W,2026-06-30T14:02:49.764480,15.23564681,.00095703,97.3787,229.6118,266.6976,93.3167,0,U,43778,999,41469,.36805346E-3,.8743E-4,0
SNUSAT-2,2018-099AA,2026-06-30T02:07:23.925504,15.22028796,.00088515,97.4054,234.2745,244.7772,115.2547,0,U,43782,999,41499,.40262881E-3,.9144E-4,0
KAZSTSAT,2018-099AB,2026-06-30T13:46:01.121376,14.99913638,.00084159,97.4296,212.8956,32.3279,327.8459,0,U,43783,999,41331,.1634001E-3,.1972E-4,0
SNUGLITE,2018-099AC,2026-06-30T13:47:25.014048,15.27462325,.00021026,97.3860,235.7243,205.8124,154.3011,0,U,43784,999,41536,.43434525E-3,.11606E-3,0
ITASAT,2018-099AE,2026-06-30T14:10:36.073056,15.19218577,.00109494,97.4020,232.8356,309.6889,50.3380,0,U,43786,999,41494,.30036376E-3,.6267E-4,0
EAGLET-I,2018-099AJ,2026-06-29T22:47:12.308064,15.13032446,.00096473,97.4226,230.2798,305.6486,54.3846,0,U,43790,999,41426,.27160213E-3,.474E-4,0
ESEO,2018-099AL,2026-06-30T13:13:01.743168,15.04286361,.00101225,97.3967,218.3673,291.4741,68.5406,0,U,43792,999,41381,.78481696E-4,.1035E-4,0
HAWK-B,2018-099AN,2026-06-30T13:50:41.428032,15.22965155,.0030319,97.3953,233.0257,255.3153,104.4722,0,U,43794,999,41507,.24180069E-3,.5679E-4,0
THEA,2018-099AQ,2026-06-30T10:24:17.510400,15.35453087,.00066529,97.4441,251.2574,226.9526,133.1161,0,U,43796,999,41472,.48266289E-3,.16572E-3,0
SKYSAT-C12,2018-099AR,2026-06-30T12:44:02.268384,15.49324342,.0006198,96.9243,204.2339,103.9646,256.2296,0,U,43797,999,42392,.31942228E-3,.17421E-3,0
ASTROCAST 0.1,2018-099AS,2026-06-29T18:52:06.203424,15.50394855,.00056944,97.4379,259.6823,168.1650,191.9736,0,U,43798,999,41638,.58303763E-3,.33146E-3,0
HAWK-C,2018-099AT,2026-06-30T02:13:33.429792,15.28279041,.00390013,97.3883,234.1369,238.1377,121.6064,0,U,43799,999,41588,.25854652E-3,.7207E-4,0
ICEYE-X2,2018-099AU,2026-06-30T14:10:40.048320,15.17882738,.00084495,97.4352,235.1967,251.8585,108.1729,0,U,43800,999,41485,.41671072E-3,.8388E-4,0
JY1SAT (JO-97),2018-099AX,2026-06-30T03:26:25.095264,15.34057952,.0005404,97.4129,244.0253,207.7837,152.3117,0,U,43803,999,41561,.4634271E-3,.15212E-3,0
SUOMI-100,2018-099AY,2026-06-30T02:27:42.027264,15.28706711,.00090771,97.4182,241.4494,226.1565,133.8926,0,U,43804,999,41539,.38869752E-3,.1079E-3,0
EUCROPIS,2018-099BB,2026-06-30T03:52:23.045376,15.20764366,.00041376,97.4216,236.7349,238.0884,121.9950,0,U,43807,999,41443,.33128771E-3,.723E-4,0
POLAR SCOUT YUKON,2018-099BC,2026-06-30T03:31:10.866720,15.38519193,.00036084,97.4685,254.1766,264.1155,95.9679,0,U,43808,999,41550,.52257033E-3,.19812E-3,0
CENTAURI-1,2018-099BD,2026-06-29T21:00:43.014240,15.16488025,.00123667,97.4216,232.3228,284.7542,75.2321,0,U,43809,999,41442,.29390537E-3,.5668E-4,0
NEXTSAT-1,2018-099BF,2026-06-30T03:01:50.222208,15.08689091,.00105217,97.4060,223.3888,294.5965,65.4167,0,U,43811,999,41383,.19342754E-3,.2974E-4,0
GLOBAL-2,2018-099BG,2026-06-30T12:55:34.520736,15.08747720,.00076223,97.3545,217.4967,106.2802,253.9267,0,U,43812,999,41392,.17725586E-3,.2724E-4,0
FALCONSAT-6,2018-099BK,2026-06-30T03:57:14.800896,15.27369062,.00137322,97.3804,257.0347,254.1201,162.7916,0,U,43815,999,41571,.13044194E-3,.3429E-4,0
EXCITE,2018-099BP,2026-06-30T02:19:13.151136,15.06557791,.00167202,97.3960,219.3549,310.9570,49.0210,0,U,43819,999,41369,.12454531E-3,.1788E-4,0
SEAHAWK-1,2018-099BQ,2026-06-30T01:55:46.991136,15.23012255,.00066075,97.3952,233.3702,258.9736,101.0757,0,U,43820,999,41449,.40608225E-3,.9492E-4,0
GEO-KOMPSAT-2A,2018-100A,2026-06-30T12:58:27.141888,1.00270865,.00023634,0.0425,120.2814,331.3523,149.8510,0,U,43823,999,2776,0,-.333E-5,0
GSAT-11,2018-100B,2026-06-30T12:43:04.850400,1.00272257,.00081954,0.0842,266.0676,187.4777,89.8402,0,U,43824,999,2761,0,-.67E-6,0
SAUDISAT 5A,2018-102A,2026-06-30T14:07:47.092800,15.28183775,.00112725,97.3062,242.9119,88.6103,271.6428,0,U,43831,999,41772,.20029382E-3,.5438E-4,0
SAUDISAT 5B,2018-102C,2026-06-30T14:31:43.247424,15.28433608,.00119916,97.3172,246.0222,90.2632,269.9982,0,U,43833,999,41784,.18689233E-3,.5109E-4,0
GSAT-7A,2018-105A,2026-06-29T23:43:38.631648,1.00275031,.00022511,0.0499,94.8214,344.9099,257.0637,0,U,43864,999,2757,0,.36E-6,0
COSMOS 2533,2018-107A,2026-06-30T04:08:39.144192,1.00267992,.00002146,0.0454,102.5608,161.5152,146.3212,0,U,43867,999,2757,0,-.27E-6,0
